[{"OBJECT_NAME":"SEAHAWK-1","OBJECT_ID":"2018-099BQ","EPOCH":"2026-03-09T17:26:19.455648","MEAN_MOTION":15.21024633,"ECCENTRICITY":0.00069788,"INCLINATION":97.4094,"RA_OF_ASC_NODE":122.7887,"ARG_OF_PERICENTER":302.9769,"MEAN_ANOMALY":57.0796,"EPHEMERIS_TYPE":0,"CLASSIFICATION_TYPE":"U","NORAD_CAT_ID":43820,"ELEMENT_SET_NO":999,"REV_AT_EPOCH":39740,"BSTAR":0.00046242233,"MEAN_MOTION_DOT":0.00010205,"MEAN_MOTION_DDOT":0},{"OBJECT_NAME":"YAOGAN-35 02A","OBJECT_ID":"2022-068A","EPOCH":"2026-03-09T23:36:37.257984","MEAN_MOTION":15.22666149,"ECCENTRICITY":0.00125559,"INCLINATION":34.9934,"RA_OF_ASC_NODE":42.9156,"ARG_OF_PERICENTER":259.7032,"MEAN_ANOMALY":100.2267,"EPHEMERIS_TYPE":0,"CLASSIFICATION_TYPE":"U","NORAD_CAT_ID":52907,"ELEMENT_SET_NO":999,"REV_AT_EPOCH":20675,"BSTAR":0.00043413541,"MEAN_MOTION_DOT":0.00010355,"MEAN_MOTION_DDOT":0}]
